GORIZONT 1 [-]          
1 11158U 78118A   22045.92959641 -.00000008  00000+0  00000+0 0  9996
2 11158  11.1644 210.5189 3511713 274.2569  46.8900  1.00270041107063
GORIZONT 2 [-]          
1 11440U 79062A   22047.20257581 -.00000049  00000+0  00000+0 0  9991
2 11440   9.5661 303.2738 0002373 337.2819  10.8187  1.00237177122146
GORIZONT 3 [-]          
1 11648U 79105A   22046.80797066  .00000150  00000+0  00000+0 0  9993
2 11648   9.7212 304.6752 0011714 205.6577 327.5836  1.00249395106617
GORIZONT 4 [-]          
1 11841U 80049A   22046.07615293 -.00000200  00000+0  00000+0 0  9994
2 11841  10.8612 310.2727 0002007  26.0207 167.1844  0.98631000217900
GORIZONT 5 [-]          
1 13092U 82020A   22046.74571944 -.00000002  00000+0  00000+0 0  9993
2 13092  11.8289 315.4768 0032559 207.0758 340.9189  0.98530151106006
GORIZONT 6 [-]          
1 13624U 82103A   22046.62232719  .00000135  00000+0  00000+0 0  9993
2 13624  10.7408 315.4801 0001022 121.3536 141.6182  1.00201668105076
GORIZONT 7 [-]          
1 14160U 83066A   22046.60429094 -.00000197  00000+0  00000+0 0  9999
2 14160  12.3596 324.6122 0009970 324.3827 247.2153  0.98349883139182
GORIZONT 8 [-]          
1 14532U 83118A   22046.71487427 -.00000088  00000+0  00000+0 0  9995
2 14532  12.5216 326.4266 0029325 142.4375  44.5022  0.98269394104956
GORIZONT 9 [-]          
1 14940U 84041A   22046.83837840 -.00000267  00000+0  00000+0 0  9994
2 14940  11.7189 324.5282 0003179 205.2966  12.0942  1.00295724106154
GORIZONT 10 [-]         
1 15144U 84078A   22046.55320222 -.00000182  00000+0  00000+0 0  9997
2 15144  11.8061 325.5402 0001687  53.9460 237.4472  1.00170308138702
GORIZONT 11 [-]         
1 15484U 85007A   22046.94664760  .00000106  00000+0  00000+0 0  9993
2 15484  11.9729 327.4903 0002933 111.5463  64.5473  1.00331002136750
GORIZONT 12 [-]         
1 16769U 86044A   22046.75524675 -.00000342  00000+0  00000+0 0  9994
2 16769  12.5566 332.7961 0000881 358.4257 194.5473  1.00251851131403
GORIZONT 13 [-]         
1 17083U 86090A   22047.46114633 -.00000062  00000+0  00000+0 0  9992
2 17083  14.3859 339.8339 0015129 341.7952 234.3776  0.96725460103362
GORIZONT 14 [-]         
1 17969U 87040A   22045.83904360 -.00000032  00000+0  00000+0 0  9991
2 17969  13.3987 331.3670 0029716 167.1000  10.7229  0.97657596104390
GORIZONT 15 [-]         
1 19017U 88028A   22046.88507156 -.00000025  00000+0  00000+0 0  9994
2 19017  14.6475 342.7261 0035154 149.3435  40.4722  0.97827258104001
GORIZONT 16 [-]         
1 19397U 88071A   22046.68161406 -.00000356  00000+0  00000+0 0  9992
2 19397  13.5042 341.4250 0015859  51.7946 125.2882  0.99981032122414
GORIZONT 17 [-]         
1 19765U 89004A   22047.37463963 -.00000011  00000+0  00000+0 0  9996
2 19765  14.0234 344.7214 0022363 122.3120  77.4758  0.99063821119890
GORIZONT 18 [-]         
1 20107U 89052A   22046.88289109  .00000095  00000+0  00000+0 0  9995
2 20107  14.0553 345.9949 0034520 316.3164 218.8710  0.99397409118682
GORIZONT 19 [-]         
1 20263U 89081A   22046.95057241  .00000136  00000+0  00000+0 0  9994
2 20263  13.7879 345.2141 0000710 231.6071 308.1701  1.00248983118621
GORIZONT 20 [-]         
1 20659U 90054A   22046.81486089 -.00000114  00000+0  00000+0 0  9993
2 20659  14.2030 348.0576 0005491 151.8813  14.5668  1.00322418115821
GORIZONT 21 [-]         
1 20923U 90094A   22046.58192630  .00000115  00000+0  00000+0 0  9991
2 20923  14.2070 348.8338 0002439 199.1629   7.0708  1.00340191114573
GORIZONT 22 [-]         
1 20953U 90102A   22046.74955705 -.00000356  00000+0  00000+0 0  9990
2 20953  14.1654 349.1942 0004265  17.8756 156.8136  1.00366329114506
GORIZONT 23 [-]         
1 21533U 91046A   22046.58157222 -.00000081  00000+0  00000+0 0  9998
2 21533  14.8883 353.2907 0005026 333.6644 225.5581  0.98909756105073
GORIZONT 24 [-]         
1 21759U 91074A   22046.61953558  .00000002  00000+0  00000+0 0  9991
2 21759  15.0255 355.1628 0015977 222.5805  31.1904  0.98442042109378
GORIZONT 25 [-]         
1 21922U 92017A   22047.28585410 -.00000284  00000+0  00000+0 0  9996
2 21922  14.5716 354.5321 0029684  73.5618 127.7564  0.99851961109138
GORIZONT 26 [-]         
1 22041U 92043A   22046.68098753  .00000067  00000+0  00000+0 0  9998
2 22041  14.7240 356.5018 0028952 232.7588  27.8528  0.99241702107765
GORIZONT 27 [-]         
1 22245U 92082A   22046.68519001 -.00000257  00000+0  00000+0 0  9993
2 22245  14.6449 356.1554 0014070   5.4779 176.3264  1.00215588111268
GORIZONT 28 [-]         
1 22880U 93069A   22046.28434272 -.00000235  00000+0  00000+0 0  9992
2 22880  14.7474 359.9725 0033244 124.0372  58.3900  0.99651654103356
GORIZONT 29 [-]         
1 22907U 93072A   22046.81965789 -.00000288  00000+0  00000+0 0  9995
2 22907  14.6630 359.4514 0011885 345.8335 195.7938  1.00119399103321
GORIZONT 30 [-]         
1 23108U 94030A   22046.82192559 -.00000366  00000+0  00000+0 0  9999
2 23108  14.6696   0.3804 0000840  38.4641 154.7638  1.00364519101590
GORIZONT 31 [-]         
1 23775U 96005A   22046.68614941 -.00000274  00000+0  00000+0 0  9999
2 23775  14.5183   6.5187 0016861 196.2883 339.8732  0.99901003 95240
GORIZONT 32 [-]         
1 23880U 96034A   22046.78756161 -.00000291  00000+0  00000+0 0  9999
2 23880  14.4616   7.0443 0009820 353.1656   8.0950  1.00166710 94187
GORIZONT 33 [-]         
1 26372U 00029A   22046.85437075 -.00000227  00000+0  00000+0 0  9994
2 26372  13.0685  18.0782 0003932  52.9724 296.2044  1.00382619 79550
